ONEWEB-0461             
1 51649U 22012AD  25109.88494644  .00000043  00000+0  77007-4 0  9997
2 51649  87.9017  90.1477 0002027  88.3929 271.7434 13.17647420158149
ONEWEB-0463             
1 51650U 22012AE  25109.48670357  .00000050  00000+0  95695-4 0  9993
2 51650  87.9020  90.2877 0002054  86.6129 273.5237 13.17647358157873
ONEWEB-0464             
1 51651U 22012AF  25109.47788948  .00000711  00000+0  19994-2 0  9999
2 51651  87.8797 120.7607 0001791  83.2307 276.9024 13.10372301153831
ONEWEB-0468             
1 51652U 22012AG  25109.48452741  .00000627  00000+0  17584-2 0  9999
2 51652  87.8794 120.7516 0001997  90.3615 269.7741 13.10371340153813
ONEWEB-0473             
1 51653U 22012AH  25109.46958785  .00000458  00000+0  12748-2 0  9996
2 51653  87.8799 120.7578 0002076  87.2268 272.9097 13.10374625153814
ONEWEB-0474             
1 51654U 22012AJ  25109.46128123  .00000156  00000+0  40983-3 0  9990
2 51654  87.8790 120.7282 0002000  82.1594 277.9760 13.10375611153808
ONEWEB-0475             
1 51655U 22012AK  25109.95414460  .00000085  00000+0  18648-3 0  9991
2 51655  87.9020  90.1738 0002398  64.6005 295.5375 13.17648621157953
ONEWEB-0490             
1 54113U 22138A   25109.69779847 -.00000082  00000+0 -23763-3 0  9999
2 54113  87.9253  29.1286 0001816  75.0552 285.0782 13.19725189120975
